GSAT0214 (GALILEO 18)   
1 41862U 16069D   25007.53446331 -.00000004  00000+0  00000+0 0  9999
2 41862  55.1884 115.6471 0002123 265.8271  94.1358  1.70474783 50688
GSAT0215 (GALILEO 19)   
1 43055U 17079A   25005.09169131  .00000062  00000+0  00000+0 0  9999
2 43055  55.2548 236.0398 0001188 359.6663   0.4158  1.70473890 43986
GSAT0216 (GALILEO 20)   
1 43056U 17079B   25010.66249559  .00000071  00000+0  00000+0 0  9992
2 43056  55.2530 235.8859 0002142 328.5709  31.5037  1.70474083 44093
GSAT0217 (GALILEO 21)   
1 43057U 17079C   25006.77695455  .00000062  00000+0  00000+0 0  9990
2 43057  55.2525 235.9917 0002618 351.7677   8.3060  1.70473947 44012
GSAT0218 (GALILEO 22)   
1 43058U 17079D   25005.23725334  .00000062  00000+0  00000+0 0  9991
2 43058  55.2534 236.0318 0002314 312.8781  47.1840  1.70473945 44012
GSAT0221 (GALILEO 25)   
1 43564U 18060A   25009.83096357 -.00000085  00000+0  00000+0 0  9996
2 43564  57.2932 355.9007 0006489 287.3320  72.5972  1.70475443 40251
GSAT0222 (GALILEO 26)   
1 43565U 18060B   25011.22294379 -.00000091  00000+0  00000+0 0  9994
2 43565  57.2964 355.8653 0005541 266.8553  93.0767  1.70475267 40312
GSAT0219 (GALILEO 23)   
1 43566U 18060C   25009.68477707 -.00000084  00000+0  00000+0 0  9992
2 43566  57.2960 355.9088 0005660 293.4070  66.5342  1.70475452 40268
